[{"OBJECT_NAME":"STARLINK-35390","OBJECT_ID":"2025-218F","EPOCH":"2026-03-09T15:16:29.674848","MEAN_MOTION":15.05633876,"ECCENTRICITY":0.0002391,"INCLINATION":97.6024,"RA_OF_ASC_NODE":292.9305,"ARG_OF_PERICENTER":89.4011,"MEAN_ANOMALY":270.749,"EPHEMERIS_TYPE":0,"CLASSIFICATION_TYPE":"U","NORAD_CAT_ID":65796,"ELEMENT_SET_NO":999,"REV_AT_EPOCH":2496,"BSTAR":0.00060034,"MEAN_MOTION_DOT":8.609e-5,"MEAN_MOTION_DDOT":0},{"OBJECT_NAME":"CZ-3 R\/B","OBJECT_ID":"1990-030B","EPOCH":"2026-03-09T04:59:05.254944","MEAN_MOTION":7.34596404,"ECCENTRICITY":0.41088517,"INCLINATION":30.8097,"RA_OF_ASC_NODE":243.0067,"ARG_OF_PERICENTER":263.5111,"MEAN_ANOMALY":49.4801,"EPHEMERIS_TYPE":0,"CLASSIFICATION_TYPE":"U","NORAD_CAT_ID":20559,"ELEMENT_SET_NO":999,"REV_AT_EPOCH":24153,"BSTAR":0.00094099475,"MEAN_MOTION_DOT":0.00063463,"MEAN_MOTION_DDOT":0}]
